[
    {
        "CCSDS_OMM_VERS": "3.0",
        "COMMENT": "GENERATED VIA SPACE-TRACK.ORG API",
        "CREATION_DATE": "2025-04-14T03:05:54",
        "ORIGINATOR": "18 SPCS",
        "OBJECT_NAME": "BEIDOU 3M8",
        "OBJECT_ID": "2018-029B",
        "CENTER_NAME": "EARTH",
        "REF_FRAME": "TEME",
        "TIME_SYSTEM": "UTC",
        "MEAN_ELEMENT_THEORY": "SGP4",
        "EPOCH": "2025-04-13T07:36:31.014432",
        "MEAN_MOTION": "1.86229237",
        "ECCENTRICITY": "0.00048410",
        "INCLINATION": "54.5749",
        "RA_OF_ASC_NODE": "314.9662",
        "ARG_OF_PERICENTER": "23.2762",
        "MEAN_ANOMALY": "336.7759",
        "EPHEMERIS_TYPE": "0",
        "CLASSIFICATION_TYPE": "U",
        "NORAD_CAT_ID": "43246",
        "ELEMENT_SET_NO": "999",
        "REV_AT_EPOCH": "4787",
        "BSTAR": "0.00000000000000",
        "MEAN_MOTION_DOT": "-0.00000067",
        "MEAN_MOTION_DDOT": "0.0000000000000",
        "SEMIMAJOR_AXIS": "27906.365",
        "PERIOD": "773.241",
        "APOAPSIS": "21541.739",
        "PERIAPSIS": "21514.720",
        "OBJECT_TYPE": "PAYLOAD",
        "RCS_SIZE": "LARGE",
        "COUNTRY_CODE": "PRC",
        "LAUNCH_DATE": "2018-03-29",
        "SITE": "XSC",
        "DECAY_DATE": null,
        "FILE": "4701263",
        "GP_ID": "285538375",
        "TLE_LINE0": "0 BEIDOU 3M8",
        "TLE_LINE1": "1 43246U 18029B   25103.31702563 -.00000067  00000-0  00000-0 0  9991",
        "TLE_LINE2": "2 43246  54.5749 314.9662 0004841  23.2762 336.7759  1.86229237 47871"
    }
]